1 25544U 98067A   23125.53531602  .00013199  00000+0  23933-3 0  9993
2 25544  51.6412 179.9223 0006072 312.2323 193.2227 15.49932789395173
1 25544U 98067A   23125.86106038  .00012497  00000+0  22698-3 0  9997
2 25544  51.6413 178.3055 0006059 311.3029 212.9378 15.49941188395223
1 25544U 98067A   23126.17142299  .00012492  00000+0  22683-3 0  9990
2 25544  51.6413 176.7674 0006059 312.5170 144.6305 15.49949220395273
1 25544U 98067A   23126.56804023  .00012267  00000+0  22283-3 0  9999
2 25544  51.6416 174.8024 0006077 314.0117 197.6522 15.49958313395331
1 25544U 98067A   23126.62995900  .00012283  00000+0  22309-3 0  9998
2 25544  51.6418 174.4959 0006108 314.4113 182.9789 15.49960046395340
1 25544U 98067A   23127.20618404  .00017713  00000+0  31758-3 0  9995
2 25544  51.6411 171.6446 0006378 317.8359 156.9807 15.49990958395438
1 25544U 98067A   23127.40311006  .00017707  00000+0  31739-3 0  9997
2 25544  51.6411 170.6683 0006392 318.6060 175.7807 15.49998119395463
1 25544U 98067A   23127.52799878  .00017789  00000+0  31877-3 0  9990
2 25544  51.6410 170.0492 0006390 319.1205 152.6067 15.50002894395481
1 25544U 98067A   23127.59917728  .00020368  00000+0  36360-3 0  9992
2 25544  51.6408 169.6968 0006446 318.2125 190.9589 15.50010067395499
1 25544U 98067A   23128.10543156  .00017974  00000+0  32176-3 0  9990
2 25544  51.6402 167.1874 0006428 320.4312 135.5294 15.50024446395578
1 25544U 98067A   23128.17162127  .00017577  00000+0  31484-3 0  9992
2 25544  51.6407 166.8587 0006261 320.7941 144.7523 15.50025296395588
1 25544U 98067A   23128.36648160  .00016506  00000+0  29616-3 0  9994
2 25544  51.6403 165.8950 0006319 322.4824 151.1066 15.50027773395610
1 25544U 98067A   23128.82829554  .00015841  00000+0  28445-3 0  9993
2 25544  51.6411 163.6058 0006127 324.4973 207.7743 15.50041272395685
1 25544U 98067A   23129.07180156  .00014291  00000+0  25740-3 0  9992
2 25544  51.6395 162.4026 0006247 325.7260 126.2385 15.50045677395729
1 25544U 98067A   23129.33311206  .00014447  00000+0  26005-3 0  9991
2 25544  51.6399 161.1075 0006170 327.2163 143.8663 15.50052739395762
1 25544U 98067A   23129.52382288  .00015688  00000+0  28157-3 0  9998
2 25544  51.6404 160.1596 0006193 328.0352 127.9636 15.50062205395795
1 25544U 98067A   23130.56268595  .00014570  00000+0  26186-3 0  9997
2 25544  51.6402 155.0135 0006311 332.0920 164.8595 15.50089498395958
1 25544U 98067A   23131.19871300  .00014296  00000+0  25692-3 0  9997
2 25544  51.6398 151.8612 0006368 334.3982 114.1558 15.50107618396055
1 25544U 98067A   23131.59547726  .00014612  00000+0  26229-3 0  9992
2 25544  51.6400 149.8957 0006321 335.8260 168.3051 15.50121033396115
1 25544U 98067A   23131.59547726  .00014612  00000+0  26229-3 0  9992
2 25544  51.6400 149.8957 0006321 335.8261 168.3051 15.50121033396116
1 25544U 98067A   23131.79390377  .00014630  00000+0  26255-3 0  9991
2 25544  51.6401 148.9131 0006310 336.5482 195.6233 15.50127086396144
1 25544U 98067A   23132.17081402  .00014683  00000+0  26336-3 0  9998
2 25544  51.6400 147.0448 0006322 338.3030 138.5993 15.50138740396201
1 25544U 98067A   23132.42640824  .00014922  00000+0  26744-3 0  9994
2 25544  51.6400 145.7781 0006355 339.7698 124.4230 15.50147384396243
1 25544U 98067A   23132.93990175  .00014888  00000+0  26670-3 0  9996
2 25544  51.6402 143.2342 0006370 341.5417 110.1230 15.50162836396328
1 25544U 98067A   23133.19482905  .00014525  00000+0  26035-3 0  9995
2 25544  51.6401 141.9707 0006379 343.6259  91.6160 15.50168399396362
1 25544U 98067A   23133.19826094  .00014515  00000+0  26017-3 0  9995
2 25544  51.6401 141.9539 0006370 343.5504 110.8559 15.50168434396364
1 25544U 98067A   23133.33312763  .00014456  00000+0  25911-3 0  9990
2 25544  51.6398 141.2855 0006376 344.0215 143.5192 15.50172069396381
1 25544U 98067A   23133.52938630  .00014459  00000+0  25911-3 0  9991
2 25544  51.6398 140.3126 0006376 344.7371 158.7747 15.50177926396417
1 25544U 98067A   23133.79299889  .00014053  00000+0  25203-3 0  9990
2 25544  51.6406 139.0075 0006488 344.8376 190.7697 15.50183881396456
1 25544U 98067A   23133.83748705  .00013993  00000+0  25097-3 0  9994
2 25544  51.6406 138.7870 0006595 345.2402  78.8029 15.50184905396463
