OBJECT_NAME,OBJECT_ID,EPOCH,MEAN_MOTION,ECCENTRICITY,INCLINATION,RA_OF_ASC_NODE,ARG_OF_PERICENTER,MEAN_ANOMALY,EPHEMERIS_TYPE,CLASSIFICATION_TYPE,NORAD_CAT_ID,ELEMENT_SET_NO,REV_AT_EPOCH,BSTAR,MEAN_MOTION_DOT,MEAN_MOTION_DDOT
ISS (ZARYA),1998-067A,2023-05-05T12:50:51.304128,15.49932789,.0006072,51.6412,179.9223,312.2323,193.2227,0,U,25544,999,39517,.23933E-3,.13199E-3,0
ISS (ZARYA),1998-067A,2023-05-05T20:39:55.616832,15.49941188,.0006059,51.6413,178.3055,311.3029,212.9378,0,U,25544,999,39522,.22698E-3,.12497E-3,0
ISS (ZARYA),1998-067A,2023-05-06T04:06:50.946336,15.49949220,.0006059,51.6413,176.7674,312.5170,144.6305,0,U,25544,999,39527,.22683E-3,.12492E-3,0
ISS (ZARYA),1998-067A,2023-05-06T13:37:58.675872,15.49958313,.0006077,51.6416,174.8024,314.0117,197.6522,0,U,25544,999,39533,.22283E-3,.12267E-3,0
ISS (ZARYA),1998-067A,2023-05-06T15:07:08.457600,15.49960046,.0006108,51.6418,174.4959,314.4113,182.9789,0,U,25544,999,39534,.22309E-3,.12283E-3,0
ISS (ZARYA),1998-067A,2023-05-07T04:56:54.301056,15.49990958,.0006378,51.6411,171.6446,317.8359,156.9807,0,U,25544,999,39543,.31758E-3,.17713E-3,0
ISS (ZARYA),1998-067A,2023-05-07T09:40:28.709184,15.49998119,.0006392,51.6411,170.6683,318.6060,175.7807,0,U,25544,999,39546,.31739E-3,.17707E-3,0
ISS (ZARYA),1998-067A,2023-05-07T12:40:19.094592,15.50002894,.000639,51.6410,170.0492,319.1205,152.6067,0,U,25544,999,39548,.31877E-3,.17789E-3,0
ISS (ZARYA),1998-067A,2023-05-07T14:22:48.916992,15.50010067,.0006446,51.6408,169.6968,318.2125,190.9589,0,U,25544,999,39549,.3636E-3,.20368E-3,0
ISS (ZARYA),1998-067A,2023-05-08T02:31:49.286784,15.50024446,.0006428,51.6402,167.1874,320.4312,135.5294,0,U,25544,999,39557,.32176E-3,.17974E-3,0
ISS (ZARYA),1998-067A,2023-05-08T04:07:08.077728,15.50025296,.0006261,51.6407,166.8587,320.7941,144.7523,0,U,25544,999,39558,.31484E-3,.17577E-3,0
ISS (ZARYA),1998-067A,2023-05-08T08:47:44.010240,15.50027773,.0006319,51.6403,165.8950,322.4824,151.1066,0,U,25544,999,39561,.29616E-3,.16506E-3,0
ISS (ZARYA),1998-067A,2023-05-08T19:52:44.734656,15.50041272,.0006127,51.6411,163.6058,324.4973,207.7743,0,U,25544,999,39568,.28445E-3,.15841E-3,0
ISS (ZARYA),1998-067A,2023-05-09T01:43:23.654784,15.50045677,.0006247,51.6395,162.4026,325.7260,126.2385,0,U,25544,999,39572,.2574E-3,.14291E-3,0
ISS (ZARYA),1998-067A,2023-05-09T07:59:40.881984,15.50052739,.000617,51.6399,161.1075,327.2163,143.8663,0,U,25544,999,39576,.26005E-3,.14447E-3,0
ISS (ZARYA),1998-067A,2023-05-09T12:34:18.296832,15.50062205,.0006193,51.6404,160.1596,328.0352,127.9636,0,U,25544,999,39579,.28157E-3,.15688E-3,0
ISS (ZARYA),1998-067A,2023-05-10T13:30:16.066080,15.50089498,.0006311,51.6402,155.0135,332.0920,164.8595,0,U,25544,999,39595,.26186E-3,.1457E-3,0
ISS (ZARYA),1998-067A,2023-05-11T04:46:08.803200,15.50107618,.0006368,51.6398,151.8612,334.3982,114.1558,0,U,25544,999,39605,.25692E-3,.14296E-3,0
ISS (ZARYA),1998-067A,2023-05-11T14:17:29.235264,15.50121033,.0006321,51.6400,149.8957,335.8260,168.3051,0,U,25544,999,39611,.26229E-3,.14612E-3,0
ISS (ZARYA),1998-067A,2023-05-11T14:17:29.235264,15.50121033,.0006321,51.6400,149.8957,335.8261,168.3051,0,U,25544,999,39611,.26229E-3,.14612E-3,0
ISS (ZARYA),1998-067A,2023-05-11T19:03:13.285728,15.50127086,.000631,51.6401,148.9131,336.5482,195.6233,0,U,25544,999,39614,.26255E-3,.1463E-3,0
ISS (ZARYA),1998-067A,2023-05-12T04:05:58.331328,15.50138740,.0006322,51.6400,147.0448,338.3030,138.5993,0,U,25544,999,39620,.26336E-3,.14683E-3,0
ISS (ZARYA),1998-067A,2023-05-12T10:14:01.671936,15.50147384,.0006355,51.6400,145.7781,339.7698,124.4230,0,U,25544,999,39624,.26744E-3,.14922E-3,0
ISS (ZARYA),1998-067A,2023-05-12T22:33:27.511200,15.50162836,.000637,51.6402,143.2342,341.5417,110.1230,0,U,25544,999,39632,.2667E-3,.14888E-3,0
ISS (ZARYA),1998-067A,2023-05-13T04:40:33.229920,15.50168399,.0006379,51.6401,141.9707,343.6259,91.6160,0,U,25544,999,39636,.26035E-3,.14525E-3,0
ISS (ZARYA),1998-067A,2023-05-13T04:45:29.745216,15.50168434,.000637,51.6401,141.9539,343.5504,110.8559,0,U,25544,999,39636,.26017E-3,.14515E-3,0
ISS (ZARYA),1998-067A,2023-05-13T07:59:42.227232,15.50172069,.0006376,51.6398,141.2855,344.0215,143.5192,0,U,25544,999,39638,.25911E-3,.14456E-3,0
ISS (ZARYA),1998-067A,2023-05-13T12:42:18.976320,15.50177926,.0006376,51.6398,140.3126,344.7371,158.7747,0,U,25544,999,39641,.25911E-3,.14459E-3,0
ISS (ZARYA),1998-067A,2023-05-13T19:01:55.104096,15.50183881,.0006488,51.6406,139.0075,344.8376,190.7697,0,U,25544,999,39645,.25203E-3,.14053E-3,0
ISS (ZARYA),1998-067A,2023-05-13T20:05:58.881120,15.50184905,.0006595,51.6406,138.7870,345.2402,78.8029,0,U,25544,999,39646,.25097E-3,.13993E-3,0
